[
  {
    "OBJECT_NAME": "STARLINK-37191",
    "OBJECT_ID": "2026-059P",
    "EPOCH": "2026-04-17T22:00:01.999584",
    "MEAN_MOTION": 15.52969692,
    "ECCENTRICITY": 0.00013949,
    "INCLINATION": 53.1592,
    "RA_OF_ASC_NODE": 166.8626,
    "ARG_OF_PERICENTER": 81.8292,
    "MEAN_ANOMALY": 157.4184,
    "EPHEMERIS_TYPE": 0,
    "CLASSIFICATION_TYPE": "U",
    "NORAD_CAT_ID": 68334,
    "ELEMENT_SET_NO": 999,
    "REV_AT_EPOCH": 534,
    "BSTAR": -0.033617991,
    "MEAN_MOTION_DOT": -0.01881587,
    "MEAN_MOTION_DDOT": 0
  },
  {
    "OBJECT_NAME": "STARLINK-37217",
    "OBJECT_ID": "2026-059Q",
    "EPOCH": "2026-04-17T22:00:01.999584",
    "MEAN_MOTION": 15.5196592,
    "ECCENTRICITY": 0.00016047,
    "INCLINATION": 53.1591,
    "RA_OF_ASC_NODE": 166.8995,
    "ARG_OF_PERICENTER": 68.8452,
    "MEAN_ANOMALY": 152.2397,
    "EPHEMERIS_TYPE": 0,
    "CLASSIFICATION_TYPE": "U",
    "NORAD_CAT_ID": 68335,
    "ELEMENT_SET_NO": 999,
    "REV_AT_EPOCH": 534,
    "BSTAR": -0.030458557,
    "MEAN_MOTION_DOT": -0.01668441,
    "MEAN_MOTION_DDOT": 0
  },
  {
    "OBJECT_NAME": "STARLINK-37143",
    "OBJECT_ID": "2026-059R",
    "EPOCH": "2026-04-17T22:00:01.999584",
    "MEAN_MOTION": 15.56066904,
    "ECCENTRICITY": 9.882e-05,
    "INCLINATION": 53.1589,
    "RA_OF_ASC_NODE": 166.702,
    "ARG_OF_PERICENTER": 85.4252,
    "MEAN_ANOMALY": 232.788,
    "EPHEMERIS_TYPE": 0,
    "CLASSIFICATION_TYPE": "U",
    "NORAD_CAT_ID": 68336,
    "ELEMENT_SET_NO": 999,
    "REV_AT_EPOCH": 534,
    "BSTAR": -0.029770914,
    "MEAN_MOTION_DOT": -0.0186979,
    "MEAN_MOTION_DDOT": 0
  },
  {
    "OBJECT_NAME": "STARLINK-36237",
    "OBJECT_ID": "2026-059S",
    "EPOCH": "2026-04-17T22:00:01.999584",
    "MEAN_MOTION": 15.60697398,
    "ECCENTRICITY": 8.863e-05,
    "INCLINATION": 53.1597,
    "RA_OF_ASC_NODE": 166.5117,
    "ARG_OF_PERICENTER": 84.5118,
    "MEAN_ANOMALY": 327.1733,
    "EPHEMERIS_TYPE": 0,
    "CLASSIFICATION_TYPE": "U",
    "NORAD_CAT_ID": 68337,
    "ELEMENT_SET_NO": 999,
    "REV_AT_EPOCH": 534,
    "BSTAR": -0.025323041,
    "MEAN_MOTION_DOT": -0.01894178,
    "MEAN_MOTION_DDOT": 0
  },
  {
    "OBJECT_NAME": "STARLINK-36254",
    "OBJECT_ID": "2026-059T",
    "EPOCH": "2026-04-17T22:00:01.999584",
    "MEAN_MOTION": 15.61304097,
    "ECCENTRICITY": 8.61e-05,
    "INCLINATION": 53.1595,
    "RA_OF_ASC_NODE": 166.4725,
    "ARG_OF_PERICENTER": 79.9298,
    "MEAN_ANOMALY": 350.6351,
    "EPHEMERIS_TYPE": 0,
    "CLASSIFICATION_TYPE": "U",
    "NORAD_CAT_ID": 68338,
    "ELEMENT_SET_NO": 999,
    "REV_AT_EPOCH": 534,
    "BSTAR": -0.024722916,
    "MEAN_MOTION_DOT": -0.01893551,
    "MEAN_MOTION_DDOT": 0
  },
  {
    "OBJECT_NAME": "STARLINK-37200",
    "OBJECT_ID": "2026-059U",
    "EPOCH": "2026-04-17T22:00:01.999584",
    "MEAN_MOTION": 15.60942994,
    "ECCENTRICITY": 0.00010093,
    "INCLINATION": 53.1601,
    "RA_OF_ASC_NODE": 166.4942,
    "ARG_OF_PERICENTER": 59.9923,
    "MEAN_ANOMALY": 0.1655,
    "EPHEMERIS_TYPE": 0,
    "CLASSIFICATION_TYPE": "U",
    "NORAD_CAT_ID": 68339,
    "ELEMENT_SET_NO": 999,
    "REV_AT_EPOCH": 534,
    "BSTAR": -0.025103224,
    "MEAN_MOTION_DOT": -0.01895644,
    "MEAN_MOTION_DDOT": 0
  },
  {
    "OBJECT_NAME": "STARLINK-37185",
    "OBJECT_ID": "2026-059V",
    "EPOCH": "2026-04-17T22:00:01.999584",
    "MEAN_MOTION": 15.57276203,
    "ECCENTRICITY": 7.797e-05,
    "INCLINATION": 53.1585,
    "RA_OF_ASC_NODE": 166.6152,
    "ARG_OF_PERICENTER": 82.117,
    "MEAN_ANOMALY": 278.36,
    "EPHEMERIS_TYPE": 0,
    "CLASSIFICATION_TYPE": "U",
    "NORAD_CAT_ID": 68340,
    "ELEMENT_SET_NO": 999,
    "REV_AT_EPOCH": 534,
    "BSTAR": -0.028422419,
    "MEAN_MOTION_DOT": -0.01868213,
    "MEAN_MOTION_DDOT": 0
  },
  {
    "OBJECT_NAME": "STARLINK-37181",
    "OBJECT_ID": "2026-059W",
    "EPOCH": "2026-04-17T22:00:01.999584",
    "MEAN_MOTION": 15.58492255,
    "ECCENTRICITY": 7.972e-05,
    "INCLINATION": 53.1591,
    "RA_OF_ASC_NODE": 166.5586,
    "ARG_OF_PERICENTER": 79.3113,
    "MEAN_ANOMALY": 309.1692,
    "EPHEMERIS_TYPE": 0,
    "CLASSIFICATION_TYPE": "U",
    "NORAD_CAT_ID": 68341,
    "ELEMENT_SET_NO": 999,
    "REV_AT_EPOCH": 534,
    "BSTAR": -0.027541004,
    "MEAN_MOTION_DOT": -0.01892592,
    "MEAN_MOTION_DDOT": 0
  },
  {
    "OBJECT_NAME": "STARLINK-37192",
    "OBJECT_ID": "2026-059X",
    "EPOCH": "2026-04-17T22:00:01.999584",
    "MEAN_MOTION": 15.49291855,
    "ECCENTRICITY": 7.918e-05,
    "INCLINATION": 53.1593,
    "RA_OF_ASC_NODE": 167.7184,
    "ARG_OF_PERICENTER": 70.2526,
    "MEAN_ANOMALY": 106.1402,
    "EPHEMERIS_TYPE": 0,
    "CLASSIFICATION_TYPE": "U",
    "NORAD_CAT_ID": 68342,
    "ELEMENT_SET_NO": 999,
    "REV_AT_EPOCH": 534,
    "BSTAR": 0.00040966895,
    "MEAN_MOTION_DOT": 0.00022387,
    "MEAN_MOTION_DDOT": 0
  },
  {
    "OBJECT_NAME": "STARLINK-37158",
    "OBJECT_ID": "2026-059Y",
    "EPOCH": "2026-04-17T22:00:01.999584",
    "MEAN_MOTION": 15.54625246,
    "ECCENTRICITY": 0.00010105,
    "INCLINATION": 53.1595,
    "RA_OF_ASC_NODE": 166.6958,
    "ARG_OF_PERICENTER": 95.6402,
    "MEAN_ANOMALY": 225.0815,
    "EPHEMERIS_TYPE": 0,
    "CLASSIFICATION_TYPE": "U",
    "NORAD_CAT_ID": 68343,
    "ELEMENT_SET_NO": 999,
    "REV_AT_EPOCH": 534,
    "BSTAR": -0.031515537,
    "MEAN_MOTION_DOT": -0.01875247,
    "MEAN_MOTION_DDOT": 0
  },
  {
    "OBJECT_NAME": "STARLINK-36380",
    "OBJECT_ID": "2026-059Z",
    "EPOCH": "2026-04-17T22:00:01.999584",
    "MEAN_MOTION": 15.5190494,
    "ECCENTRICITY": 0.00012773,
    "INCLINATION": 53.1589,
    "RA_OF_ASC_NODE": 166.8443,
    "ARG_OF_PERICENTER": 79.9103,
    "MEAN_ANOMALY": 168.1644,
    "EPHEMERIS_TYPE": 0,
    "CLASSIFICATION_TYPE": "U",
    "NORAD_CAT_ID": 68344,
    "ELEMENT_SET_NO": 999,
    "REV_AT_EPOCH": 534,
    "BSTAR": -0.033474688,
    "MEAN_MOTION_DOT": -0.01811269,
    "MEAN_MOTION_DDOT": 0
  },
  {
    "OBJECT_NAME": "STARLINK-37214",
    "OBJECT_ID": "2026-059AA",
    "EPOCH": "2026-04-17T22:00:01.999584",
    "MEAN_MOTION": 15.55051097,
    "ECCENTRICITY": 9.037e-05,
    "INCLINATION": 53.1594,
    "RA_OF_ASC_NODE": 166.6578,
    "ARG_OF_PERICENTER": 83.8004,
    "MEAN_ANOMALY": 255.0916,
    "EPHEMERIS_TYPE": 0,
    "CLASSIFICATION_TYPE": "U",
    "NORAD_CAT_ID": 68345,
    "ELEMENT_SET_NO": 999,
    "REV_AT_EPOCH": 534,
    "BSTAR": -0.030915708,
    "MEAN_MOTION_DOT": -0.01869515,
    "MEAN_MOTION_DDOT": 0
  },
  {
    "OBJECT_NAME": "STARLINK-37169",
    "OBJECT_ID": "2026-059AB",
    "EPOCH": "2026-04-17T22:00:01.999584",
    "MEAN_MOTION": 15.52855698,
    "ECCENTRICITY": 0.00011554,
    "INCLINATION": 53.159,
    "RA_OF_ASC_NODE": 166.753,
    "ARG_OF_PERICENTER": 90.0325,
    "MEAN_ANOMALY": 202.1847,
    "EPHEMERIS_TYPE": 0,
    "CLASSIFICATION_TYPE": "U",
    "NORAD_CAT_ID": 68346,
    "ELEMENT_SET_NO": 999,
    "REV_AT_EPOCH": 534,
    "BSTAR": -0.033336808,
    "MEAN_MOTION_DOT": -0.01860693,
    "MEAN_MOTION_DDOT": 0
  },
  {
    "OBJECT_NAME": "STARLINK-37136",
    "OBJECT_ID": "2026-059AC",
    "EPOCH": "2026-04-17T22:00:01.999584",
    "MEAN_MOTION": 15.59348997,
    "ECCENTRICITY": 8.345e-05,
    "INCLINATION": 53.1595,
    "RA_OF_ASC_NODE": 166.4625,
    "ARG_OF_PERICENTER": 76.8617,
    "MEAN_ANOMALY": 357.7151,
    "EPHEMERIS_TYPE": 0,
    "CLASSIFICATION_TYPE": "U",
    "NORAD_CAT_ID": 68347,
    "ELEMENT_SET_NO": 999,
    "REV_AT_EPOCH": 534,
    "BSTAR": -0.026590825,
    "MEAN_MOTION_DOT": -0.01888752,
    "MEAN_MOTION_DDOT": 0
  }
]