{"generatedAt":"2026-04-18T07:18:11.928163Z","satellites":[{"name":"STARLINK-37191","tle1":"1 68334U 26059P   26107.91668981 -.01881587  00000+0 -33618-1 0  9991","tle2":"2 68334  53.1592 166.8626 0001394  81.8292 157.4184 15.52969692  5349"},{"name":"STARLINK-37217","tle1":"1 68335U 26059Q   26107.91668981 -.01668441  00000+0 -30459-1 0  9994","tle2":"2 68335  53.1591 166.8995 0001604  68.8452 152.2397 15.51965920  5343"},{"name":"STARLINK-37143","tle1":"1 68336U 26059R   26107.91668981 -.01869790  00000+0 -29771-1 0  9990","tle2":"2 68336  53.1589 166.7020 0000988  85.4252 232.7880 15.56066904  5346"},{"name":"STARLINK-36237","tle1":"1 68337U 26059S   26107.91668981 -.01894178  00000+0 -25323-1 0  9998","tle2":"2 68337  53.1597 166.5117 0000886  84.5118 327.1733 15.60697398  5347"},{"name":"STARLINK-36254","tle1":"1 68338U 26059T   26107.91668981 -.01893551  00000+0 -24723-1 0  9996","tle2":"2 68338  53.1595 166.4725 0000861  79.9298 350.6351 15.61304097  5349"},{"name":"STARLINK-37200","tle1":"1 68339U 26059U   26107.91668981 -.01895644  00000+0 -25103-1 0  9995","tle2":"2 68339  53.1601 166.4942 0001009  59.9923   0.1655 15.60942994  5344"},{"name":"STARLINK-37185","tle1":"1 68340U 26059V   26107.91668981 -.01868213  00000+0 -28422-1 0  9996","tle2":"2 68340  53.1585 166.6152 0000779  82.1170 278.3600 15.57276203  5345"},{"name":"STARLINK-37181","tle1":"1 68341U 26059W   26107.91668981 -.01892592  00000+0 -27541-1 0  9995","tle2":"2 68341  53.1591 166.5586 0000797  79.3113 309.1692 15.58492255  5340"},{"name":"STARLINK-37192","tle1":"1 68342U 26059X   26107.91668981  .00022387  00000+0  40967-3 0  9999","tle2":"2 68342  53.1593 167.7184 0000791  70.2526 106.1402 15.49291855  5349"},{"name":"STARLINK-37158","tle1":"1 68343U 26059Y   26107.91668981 -.01875247  00000+0 -31516-1 0  9992","tle2":"2 68343  53.1595 166.6958 0001010  95.6402 225.0815 15.54625246  5348"},{"name":"STARLINK-36380","tle1":"1 68344U 26059Z   26107.91668981 -.01811269  00000+0 -33475-1 0  9993","tle2":"2 68344  53.1589 166.8443 0001277  79.9103 168.1644 15.51904940  5346"},{"name":"STARLINK-37214","tle1":"1 68345U 26059AA  26107.91668981 -.01869515  00000+0 -30916-1 0  9998","tle2":"2 68345  53.1594 166.6578 0000903  83.8004 255.0916 15.55051097  5347"},{"name":"STARLINK-37169","tle1":"1 68346U 26059AB  26107.91668981 -.01860693  00000+0 -33337-1 0  9997","tle2":"2 68346  53.1590 166.7530 0001155  90.0325 202.1847 15.52855698  5341"},{"name":"STARLINK-37136","tle1":"1 68347U 26059AC  26107.91668981 -.01888752  00000+0 -26591-1 0  9998","tle2":"2 68347  53.1595 166.4625 0000834  76.8617 357.7151 15.59348997  5349"}]}